QIANFAN-105             
1 66047U 25233Q   25344.77440340  .00000470  00000+0  31421-3 0  9999
2 66047  88.9960  62.3500 0016798  49.5075 310.7564 13.99265861  7713
QIANFAN-106             
1 66048U 25233R   25344.47848424  .00000092  00000+0  66985-4 0  9996
2 66048  88.9963  62.3969 0017175  48.4767 311.7875 13.87338101  7667
QIANFAN-107             
1 66049U 25233S   25344.67975788  .00000192  00000+0  15666-3 0  9993
2 66049  88.9964  62.3726 0016713  51.6087 308.6582 13.85505989  7699
QIANFAN-108             
1 66050U 25233T   25344.46987471  .00000223  00000+0  18173-3 0  9995
2 66050  88.9957  62.3962 0016704  54.2744 305.9978 13.86207576  7662
